start=new Date('2021-08-31T00:00:00.000Z').valueOf();
sats=[{"BSTAR":"-0.00200760000000","ELEMENT_SET_NO":"999","FILE":"3105635","MEAN_ELEMENT_THEORY":"SGP4","LAUNCH_DATE":"2021-05-09","ECCENTRICITY":"0.00014240","NORAD_CAT_ID":"48441","OBJECT_NAME":"STARLINK-2702","MEAN_MOTION":"15.06415324","PERIOD":"95.591","ARG_OF_PERICENTER":"107.5009","CENTER_NAME":"EARTH","TLE_LINE1":"1 48441U 21040P   21242.58334491 -.00030071  00000-0 -20076-2 0  9996","SITE":"AFETR","EPOCH":"2021-08-30T14:00:01.000224","OBJECT_TYPE":"PAYLOAD","REF_FRAME":"TEME","CLASSIFICATION_TYPE":"U","OBJECT_ID":"2021-040P","GP_ID":"183733389","REV_AT_EPOCH":"359","MEAN_ANOMALY":"306.4401","MEAN_MOTION_DOT":"-0.00030071","APOAPSIS":"548.153","COUNTRY_CODE":"US","TLE_LINE2":"2 48441  53.0539  38.1962 0001424 107.5009 306.4401 15.06415324  3596","INCLINATION":"53.0539","SEMIMAJOR_AXIS":"6925.302","RA_OF_ASC_NODE":"38.1962","PERIAPSIS":"546.180","DECAY_DATE":null,"TIME_SYSTEM":"UTC","EPHEMERIS_TYPE":"0","RCS_SIZE":"LARGE","MEAN_MOTION_DDOT":"0.0000000000000"},{"OBJECT_ID":"2021-040Q","OBJECT_TYPE":"PAYLOAD","REF_FRAME":"TEME","CLASSIFICATION_TYPE":"U","CENTER_NAME":"EARTH","SITE":"AFETR","TLE_LINE1":"1 48442U 21040Q   21242.58334491 -.00030830  00000-0 -20596-2 0  9997","EPOCH":"2021-08-30T14:00:01.000224","NORAD_CAT_ID":"48442","OBJECT_NAME":"STARLINK-2644","MEAN_MOTION":"15.06403467","PERIOD":"95.592","ARG_OF_PERICENTER":"96.6507","ELEMENT_SET_NO":"999","FILE":"3105635","LAUNCH_DATE":"2021-05-09","MEAN_ELEMENT_THEORY":"SGP4","ECCENTRICITY":"0.00013480","BSTAR":"-0.00205960000000","EPHEMERIS_TYPE":"0","RCS_SIZE":"LARGE","MEAN_MOTION_DDOT":"0.0000000000000","TIME_SYSTEM":"UTC","RA_OF_ASC_NODE":"38.1985","PERIAPSIS":"546.269","DECAY_DATE":null,"INCLINATION":"53.0545","SEMIMAJOR_AXIS":"6925.338","TLE_LINE2":"2 48442  53.0545  38.1985 0001348  96.6507 337.2623 15.06403467  3598","COUNTRY_CODE":"US","MEAN_ANOMALY":"337.2623","MEAN_MOTION_DOT":"-0.00030830","APOAPSIS":"548.136","GP_ID":"183733478","REV_AT_EPOCH":"359"},{"SEMIMAJOR_AXIS":"6925.395","INCLINATION":"53.0537","DECAY_DATE":null,"PERIAPSIS":"546.229","RA_OF_ASC_NODE":"38.1966","TIME_SYSTEM":"UTC","MEAN_MOTION_DDOT":"0.0000000000000","RCS_SIZE":"LARGE","EPHEMERIS_TYPE":"0","REV_AT_EPOCH":"359","GP_ID":"183733296","MEAN_MOTION_DOT":"-0.00030810","APOAPSIS":"548.291","MEAN_ANOMALY":"352.2264","COUNTRY_CODE":"US","TLE_LINE2":"2 48443  53.0537  38.1966 0001489 101.7085 352.2264 15.06384814  3596","EPOCH":"2021-08-30T14:00:01.000224","TLE_LINE1":"1 48443U 21040R   21242.58334491 -.00030810  00000-0 -20593-2 0  9993","SITE":"AFETR","CENTER_NAME":"EARTH","REF_FRAME":"TEME","OBJECT_TYPE":"PAYLOAD","CLASSIFICATION_TYPE":"U","OBJECT_ID":"2021-040R","BSTAR":"-0.00205930000000","ECCENTRICITY":"0.00014890","FILE":"3105635","LAUNCH_DATE":"2021-05-09","MEAN_ELEMENT_THEORY":"SGP4","ELEMENT_SET_NO":"999","PERIOD":"95.593","ARG_OF_PERICENTER":"101.7085","MEAN_MOTION":"15.06384814","OBJECT_NAME":"STARLINK-2663","NORAD_CAT_ID":"48443"},{"MEAN_ANOMALY":"15.3226","APOAPSIS":"548.086","MEAN_MOTION_DOT":"-0.00030882","GP_ID":"183733231","REV_AT_EPOCH":"359","TLE_LINE2":"2 48444  53.0549  38.1974 0001271  98.5779  15.3226 15.06402482  3598","COUNTRY_CODE":"US","RA_OF_ASC_NODE":"38.1974","PERIAPSIS":"546.326","DECAY_DATE":null,"INCLINATION":"53.0549","SEMIMAJOR_AXIS":"6925.341","EPHEMERIS_TYPE":"0","RCS_SIZE":"LARGE","MEAN_MOTION_DDOT":"0.0000000000000","TIME_SYSTEM":"UTC","BSTAR":"-0.00206320000000","NORAD_CAT_ID":"48444","OBJECT_NAME":"STARLINK-2645","MEAN_MOTION":"15.06402482","PERIOD":"95.592","ARG_OF_PERICENTER":"98.5779","ELEMENT_SET_NO":"999","LAUNCH_DATE":"2021-05-09","FILE":"3105635","MEAN_ELEMENT_THEORY":"SGP4","ECCENTRICITY":"0.00012710","OBJECT_TYPE":"PAYLOAD","CLASSIFICATION_TYPE":"U","REF_FRAME":"TEME","CENTER_NAME":"EARTH","SITE":"AFETR","TLE_LINE1":"1 48444U 21040S   21242.58334491 -.00030882  00000-0 -20632-2 0  9997","EPOCH":"2021-08-30T14:00:01.000224","OBJECT_ID":"2021-040S"},{"TLE_LINE2":"2 48445  53.0537  38.1977 0001456 105.0468  28.8908 15.06382885  3593","COUNTRY_CODE":"US","MEAN_ANOMALY":"28.8908","APOAPSIS":"548.274","MEAN_MOTION_DOT":"-0.00030392","GP_ID":"183733049","REV_AT_EPOCH":"359","EPHEMERIS_TYPE":"0","RCS_SIZE":"LARGE","MEAN_MOTION_DDOT":"0.0000000000000","TIME_SYSTEM":"UTC","RA_OF_ASC_NODE":"38.1977","PERIAPSIS":"546.258","DECAY_DATE":null,"INCLINATION":"53.0537","SEMIMAJOR_AXIS":"6925.401","NORAD_CAT_ID":"48445","OBJECT_NAME":"STARLINK-2634","MEAN_MOTION":"15.06382885","PERIOD":"95.593","ARG_OF_PERICENTER":"105.0468","ELEMENT_SET_NO":"999","MEAN_ELEMENT_THEORY":"SGP4","FILE":"3105635","LAUNCH_DATE":"2021-05-09","ECCENTRICITY":"0.00014560","BSTAR":"-0.00203110000000","OBJECT_ID":"2021-040T","OBJECT_TYPE":"PAYLOAD","REF_FRAME":"TEME","CLASSIFICATION_TYPE":"U","CENTER_NAME":"EARTH","SITE":"AFETR","TLE_LINE1":"1 48445U 21040T   21242.58334491 -.00030392  00000-0 -20311-2 0  9998","EPOCH":"2021-08-30T14:00:01.000224"},{"ECCENTRICITY":"0.00013770","MEAN_ELEMENT_THEORY":"SGP4","FILE":"3105771","LAUNCH_DATE":"2021-05-09","ELEMENT_SET_NO":"999","PERIOD":"95.595","ARG_OF_PERICENTER":"89.3337","MEAN_MOTION":"15.06352131","OBJECT_NAME":"STARLINK-2247","NORAD_CAT_ID":"48446","BSTAR":"0.00250430000000","OBJECT_ID":"2021-040U","EPOCH":"2021-08-30T22:00:01.999584","SITE":"AFETR","TLE_LINE1":"1 48446U 21040U   21242.91668981  .00037169  00000-0  25043-2 0  9994","CENTER_NAME":"EARTH","REF_FRAME":"TEME","OBJECT_TYPE":"PAYLOAD","CLASSIFICATION_TYPE":"U","COUNTRY_CODE":"US","TLE_LINE2":"2 48446  53.0545  36.7023 0001377  89.3337  73.3124 15.06352131 18941","REV_AT_EPOCH":"1894","GP_ID":"183736179","APOAPSIS":"548.314","MEAN_MOTION_DOT":"0.00037169","MEAN_ANOMALY":"73.3124","TIME_SYSTEM":"UTC","MEAN_MOTION_DDOT":"0.0000000000000","RCS_SIZE":"LARGE","EPHEMERIS_TYPE":"0","SEMIMAJOR_AXIS":"6925.495","INCLINATION":"53.0545","DECAY_DATE":null,"PERIAPSIS":"546.407","RA_OF_ASC_NODE":"36.7023"},{"EPOCH":"2021-08-30T14:00:01.000224","SITE":"AFETR","TLE_LINE1":"1 48447U 21040V   21242.58334491 -.00029546  00000-0 -19739-2 0  9991","CENTER_NAME":"EARTH","CLASSIFICATION_TYPE":"U","OBJECT_TYPE":"PAYLOAD","REF_FRAME":"TEME","OBJECT_ID":"2021-040V","BSTAR":"-0.00197390000000","ECCENTRICITY":"0.00015170","FILE":"3105635","MEAN_ELEMENT_THEORY":"SGP4","LAUNCH_DATE":"2021-05-09","ELEMENT_SET_NO":"999","MEAN_MOTION":"15.06380495","PERIOD":"95.593","ARG_OF_PERICENTER":"104.8828","OBJECT_NAME":"STARLINK-2269","NORAD_CAT_ID":"48447","SEMIMAJOR_AXIS":"6925.408","INCLINATION":"53.0532","DECAY_DATE":null,"PERIAPSIS":"546.223","RA_OF_ASC_NODE":"38.1970","TIME_SYSTEM":"UTC","MEAN_MOTION_DDOT":"0.0000000000000","RCS_SIZE":"LARGE","EPHEMERIS_TYPE":"0","REV_AT_EPOCH":"359","GP_ID":"183732956","APOAPSIS":"548.324","MEAN_MOTION_DOT":"-0.00029546","MEAN_ANOMALY":"69.0631","COUNTRY_CODE":"US","TLE_LINE2":"2 48447  53.0532  38.1970 0001517 104.8828  69.0631 15.06380495  3593"},{"DECAY_DATE":null,"RA_OF_ASC_NODE":"36.7024","PERIAPSIS":"546.182","SEMIMAJOR_AXIS":"6925.411","INCLINATION":"53.0542","RCS_SIZE":"LARGE","MEAN_MOTION_DDOT":"0.0000000000000","EPHEMERIS_TYPE":"0","TIME_SYSTEM":"UTC","MEAN_MOTION_DOT":"0.00035657","APOAPSIS":"548.370","MEAN_ANOMALY":"290.7264","REV_AT_EPOCH":"1893","GP_ID":"183736177","TLE_LINE2":"2 48448  53.0542  36.7024 0001580 117.0827 290.7264 15.06379674 18930","COUNTRY_CODE":"US","OBJECT_TYPE":"PAYLOAD","CLASSIFICATION_TYPE":"U","REF_FRAME":"TEME","EPOCH":"2021-08-30T22:00:01.999584","CENTER_NAME":"EARTH","TLE_LINE1":"1 48448U 21040W   21242.91668981  .00035657  00000-0  24019-2 0  9998","SITE":"AFETR","OBJECT_ID":"2021-040W","BSTAR":"0.00240190000000","OBJECT_NAME":"STARLINK-2632","PERIOD":"95.593","ARG_OF_PERICENTER":"117.0827","MEAN_MOTION":"15.06379674","NORAD_CAT_ID":"48448","ECCENTRICITY":"0.00015800","ELEMENT_SET_NO":"999","LAUNCH_DATE":"2021-05-09","FILE":"3105771","MEAN_ELEMENT_THEORY":"SGP4"},{"TLE_LINE2":"2 48449  53.0532  36.7017 0001409  90.1064 112.5382 15.06356655 18954","COUNTRY_CODE":"US","MEAN_ANOMALY":"112.5382","APOAPSIS":"548.322","MEAN_MOTION_DOT":"0.00034850","GP_ID":"183736568","REV_AT_EPOCH":"1895","EPHEMERIS_TYPE":"0","MEAN_MOTION_DDOT":"0.0000000000000","RCS_SIZE":"LARGE","TIME_SYSTEM":"UTC","PERIAPSIS":"546.371","RA_OF_ASC_NODE":"36.7017","DECAY_DATE":null,"INCLINATION":"53.0532","SEMIMAJOR_AXIS":"6925.481","NORAD_CAT_ID":"48449","PERIOD":"95.595","ARG_OF_PERICENTER":"90.1064","MEAN_MOTION":"15.06356655","OBJECT_NAME":"STARLINK-2655","FILE":"3105771","LAUNCH_DATE":"2021-05-09","MEAN_ELEMENT_THEORY":"SGP4","ELEMENT_SET_NO":"999","ECCENTRICITY":"0.00014090","BSTAR":"0.00234970000000","OBJECT_ID":"2021-040X","REF_FRAME":"TEME","OBJECT_TYPE":"PAYLOAD","CLASSIFICATION_TYPE":"U","TLE_LINE1":"1 48449U 21040X   21242.91668981  .00034850  00000-0  23497-2 0  9992","SITE":"AFETR","CENTER_NAME":"EARTH","EPOCH":"2021-08-30T22:00:01.999584"},{"MEAN_ANOMALY":"132.7085","MEAN_MOTION_DOT":"0.00033935","APOAPSIS":"548.306","GP_ID":"183736197","REV_AT_EPOCH":"1895","TLE_LINE2":"2 48450  53.0528  36.7013 0001463  89.9832 132.7085 15.06374175 18957","COUNTRY_CODE":"US","RA_OF_ASC_NODE":"36.7013","PERIAPSIS":"546.280","DECAY_DATE":null,"INCLINATION":"53.0528","SEMIMAJOR_AXIS":"6925.428","EPHEMERIS_TYPE":"0","RCS_SIZE":"LARGE","MEAN_MOTION_DDOT":"0.0000000000000","TIME_SYSTEM":"UTC","BSTAR":"0.00228770000000","NORAD_CAT_ID":"48450","OBJECT_NAME":"STARLINK-2660","PERIOD":"95.594","MEAN_MOTION":"15.06374175","ARG_OF_PERICENTER":"89.9832","ELEMENT_SET_NO":"999","MEAN_ELEMENT_THEORY":"SGP4","FILE":"3105772","LAUNCH_DATE":"2021-05-09","ECCENTRICITY":"0.00014630","REF_FRAME":"TEME","OBJECT_TYPE":"PAYLOAD","CLASSIFICATION_TYPE":"U","CENTER_NAME":"EARTH","TLE_LINE1":"1 48450U 21040Y   21242.91668981  .00033935  00000-0  22877-2 0  9998","SITE":"AFETR","EPOCH":"2021-08-30T22:00:01.999584","OBJECT_ID":"2021-040Y"}];
